NORAD_CAT_ID,OBJECT_NAME,OBJECT_TYPE,EPOCH,MEAN_MOTION,ECCENTRICITY,INCLINATION,RA_OF_ASC_NODE,ARG_OF_PERICENTER,MEAN_ANOMALY,BSTAR,MEAN_MOTION_DOT,MEAN_MOTION_DDOT,TLE_LINE0,TLE_LINE1,TLE_LINE2,SEMIMAJOR_AXIS,PERIOD,APOGEE,PERIGEE,DECAYED
53915.0,STARLINK-5017,PAYLOAD,2024-03-11 01:12:39,15.08823122,0.0001087,53.2181,345.21,84.158,275.9536,0.00012225,1.657e-05,0.0,0 STARLINK-5017,1 53915U 22119AF  24071.05046008  .00001657  00000-0  12225-3 0  9999,2 53915  53.2181 345.2100 0001087  84.1580 275.9536 15.08823122 81404,6917.932,95.439,540.549,539.045,0.0
53915.0,STARLINK-5017,PAYLOAD,2024-03-11 10:44:58,15.08814621,0.0001418,53.2183,343.4263,94.5957,265.5197,0.00037358,5.659e-05,0.0,0 STARLINK-5017,1 53915U 22119AF  24071.44790219  .00005659  00000-0  37358-3 0  9992,2 53915  53.2183 343.4263 0001418  94.5957 265.5197 15.08814621 81881,6917.958,95.439,540.804,538.842,0.0
53915.0,STARLINK-5017,PAYLOAD,2024-03-11 18:41:54,15.08838369,0.0001648,53.2188,341.9393,91.8159,268.3022,-4.8868e-05,-1.066e-05,0.0,0 STARLINK-5017,1 53915U 22119AF  24071.77909772 -.00001066  00000-0 -48868-4 0  9993,2 53915  53.2188 341.9393 0001648  91.8159 268.3022 15.08838369 81515,6917.885,95.438,540.89,538.61,0.0
53915.0,STARLINK-5017,PAYLOAD,2024-03-12 10:35:44,15.08847293,0.0001583,53.2202,338.9684,95.685,264.4323,-2.9555e-05,-7.58e-06,0.0,0 STARLINK-5017,1 53915U 22119AF  24072.44149116 -.00000758  00000-0 -29555-4 0  9995,2 53915  53.2202 338.9684 0001583  95.6850 264.4323 15.08847293 81617,6917.858,95.437,540.818,538.628,0.0
53915.0,STARLINK-5017,PAYLOAD,2024-03-13 02:29:36,15.08831652,0.0001724,53.2203,335.9938,83.5496,276.5692,0.00016897,2.402e-05,0.0,0 STARLINK-5017,1 53915U 22119AF  24073.10389967  .00002402  00000-0  16897-3 0  9999,2 53915  53.2203 335.9938 0001724  83.5496 276.5692 15.08831652 81712,6917.906,95.438,540.964,538.578,0.0
53915.0,STARLINK-5017,PAYLOAD,2024-03-13 10:26:31,15.0884867,0.00018,53.2202,334.5061,83.0612,277.0585,0.00014034,1.947e-05,0.0,0 STARLINK-5017,1 53915U 22119AF  24073.43508954  .00001947  00000-0  14034-3 0  9998,2 53915  53.2202 334.5061 0001800  83.0612 277.0585 15.08848670 81763,6917.854,95.437,540.964,538.474,0.0
53915.0,STARLINK-5017,PAYLOAD,2024-03-13 21:34:14,15.08832165,0.0001641,53.2196,332.4247,86.9627,273.1553,6.4814e-05,7.43e-06,0.0,0 STARLINK-5017,1 53915U 22119AF  24073.89878243  .00000743  00000-0  64814-4 0  9994,2 53915  53.2196 332.4247 0001641  86.9627 273.1553 15.08832165 82258,6917.904,95.438,540.905,538.634,0.0
53915.0,STARLINK-5017,PAYLOAD,2024-03-14 02:20:23,15.08839843,0.0001672,53.2179,331.5297,87.5375,272.5808,4.8917e-05,4.91e-06,0.0,0 STARLINK-5017,1 53915U 22119AF  24074.09749895  .00000491  00000-0  48917-4 0  9993,2 53915  53.2179 331.5297 0001672  87.5375 272.5808 15.08839843 81867,6917.881,95.438,540.903,538.589,0.0
53915.0,STARLINK-5017,PAYLOAD,2024-03-14 21:25:01,15.08838128,0.0001507,53.218,327.96,86.5638,273.5526,6.4777e-05,7.43e-06,0.0,0 STARLINK-5017,1 53915U 22119AF  24074.89237812  .00000743  00000-0  64777-4 0  9994,2 53915  53.2180 327.9600 0001507  86.5638 273.5526 15.08838128 82408,6917.886,95.438,540.794,538.709,0.0
53915.0,STARLINK-5017,PAYLOAD,2024-03-15 22:51:11,15.08842642,0.0001416,53.218,323.201,82.5256,277.5897,2.726e-05,1.46e-06,0.0,0 STARLINK-5017,1 53915U 22119AF  24075.95221577  .00000146  00000-0  27260-4 0  9996,2 53915  53.2180 323.2010 0001416  82.5256 277.5897 15.08842642 82561,6917.872,95.437,540.717,538.758,0.0
53915.0,STARLINK-5017,PAYLOAD,2024-03-16 22:41:58,15.08837569,0.0001145,53.2171,318.7444,94.7088,265.4035,1.7367e-05,-1.1e-07,0.0,0 STARLINK-5017,1 53915U 22119AF  24076.94581911 -.00000011  00000-0  17367-4 0  9996,2 53915  53.2171 318.7444 0001145  94.7088 265.4035 15.08837569 82717,6917.888,95.438,540.545,538.961,0.0
53915.0,STARLINK-5017,PAYLOAD,2024-03-17 01:52:45,15.08837622,0.0001144,53.2171,318.1501,95.1477,264.9646,1.6335e-05,-2.8e-07,0.0,0 STARLINK-5017,1 53915U 22119AF  24077.07829927 -.00000028  00000-0  16335-4 0  9995,2 53915  53.2171 318.1501 0001144  95.1477 264.9646 15.08837622 82319,6917.888,95.438,540.544,538.961,0.0
53915.0,STARLINK-5017,PAYLOAD,2024-03-17 22:32:45,15.08838061,0.0001204,53.2174,314.284,95.0986,265.0143,5.2376e-05,5.46e-06,0.0,0 STARLINK-5017,1 53915U 22119AF  24077.93941924  .00000546  00000-0  52376-4 0  9991,2 53915  53.2174 314.2840 0001204  95.0986 265.0143 15.08838061 82868,6917.886,95.438,540.584,538.918,0.0
53915.0,STARLINK-5017,PAYLOAD,2024-03-18 01:43:31,15.0883975,0.0001177,53.2172,313.6881,93.4075,266.7052,6.4349e-05,7.36e-06,0.0,0 STARLINK-5017,1 53915U 22119AF  24078.07189785  .00000736  00000-0  64349-4 0  9990,2 53915  53.2172 313.6881 0001177  93.4075 266.7052 15.08839750 82889,6917.881,95.438,540.56,538.932,0.0
53915.0,STARLINK-5017,PAYLOAD,2024-03-18 20:48:09,15.08835347,0.0001212,53.2174,310.1191,94.9682,265.1449,6.0092e-05,6.69e-06,0.0,0 STARLINK-5017,1 53915U 22119AF  24078.86678190  .00000669  00000-0  60092-4 0  9996,2 53915  53.2174 310.1191 0001212  94.9682 265.1449 15.08835347 82585,6917.895,95.438,540.598,538.921,0.0
53915.0,STARLINK-5017,PAYLOAD,2024-03-18 22:23:33,15.08835448,0.000121,53.2175,309.8218,93.6651,266.4479,5.9462e-05,6.59e-06,0.0,0 STARLINK-5017,1 53915U 22119AF  24078.93302210  .00000659  00000-0  59462-4 0  9999,2 53915  53.2175 309.8218 0001210  93.6651 266.4479 15.08835448 83019,6917.894,95.438,540.596,538.922,0.0
53915.0,STARLINK-5017,PAYLOAD,2024-03-19 20:38:55,15.08861797,0.0001564,53.2171,305.6589,115.4753,244.6401,0.00018872,2.718e-05,0.0,0 STARLINK-5017,1 53915U 22119AF  24079.86036092  .00002718  00000-0  18872-3 0  9991,2 53915  53.2171 305.6589 0001564 115.4753 244.6401 15.08861797 82735,6917.814,95.436,540.761,538.597,0.0
53915.0,STARLINK-5017,PAYLOAD,2024-03-19 22:14:16,15.08879974,0.0001219,53.2168,305.3615,94.3429,265.7702,0.00034862,5.271e-05,0.0,0 STARLINK-5017,1 53915U 22119AF  24079.92658463  .00005271  00000-0  34862-3 0  9994,2 53915  53.2168 305.3615 0001219  94.3429 265.7702 15.08879974 82745,6917.758,95.435,540.466,538.78,0.0
53915.0,STARLINK-5017,PAYLOAD,2024-03-20 20:29:47,15.08809029,0.0001486,53.2171,301.2012,92.0938,268.0224,-0.00020159,-3.492e-05,0.0,0 STARLINK-5017,1 53915U 22119AF  24080.85401939 -.00003492  00000-0 -20159-3 0  9991,2 53915  53.2171 301.2012 0001486  92.0938 268.0224 15.08809029 82885,6917.975,95.44,540.868,538.812,0.0
53915.0,STARLINK-5017,PAYLOAD,2024-03-20 22:05:09,15.0882813,0.0001165,53.2168,300.9033,92.9106,267.2019,-3.1067e-05,-7.82e-06,0.0,0 STARLINK-5017,1 53915U 22119AF  24080.92024445 -.00000782  00000-0 -31067-4 0  9992,2 53915  53.2168 300.9033 0001165  92.9106 267.2019 15.08828130 83316,6917.917,95.438,540.588,538.976,0.0
53915.0,STARLINK-5017,PAYLOAD,2024-03-20 23:40:31,15.08832001,0.0001176,53.2166,300.5988,115.813,244.2984,3.9952e-05,3.48e-06,0.0,0 STARLINK-5017,1 53915U 22119AF  24080.98647884  .00000348  00000-0  39952-4 0  9993,2 53915  53.2166 300.5988 0001176 115.8130 244.2984 15.08832001 82905,6917.905,95.438,540.583,538.956,0.0
53915.0,STARLINK-5017,PAYLOAD,2024-03-21 07:37:26,15.08843619,0.0001132,53.2164,299.1182,91.1214,268.9908,9.1239e-05,1.165e-05,0.0,0 STARLINK-5017,1 53915U 22119AF  24081.31766903  .00001165  00000-0  91239-4 0  9999,2 53915  53.2164 299.1182 0001132  91.1214 268.9908 15.08843619 82954,6917.869,95.437,540.517,538.951,0.0
53915.0,STARLINK-5017,PAYLOAD,2024-03-21 20:20:30,15.08855981,0.0001353,53.2156,296.7371,107.1017,253.0124,0.00014227,1.978e-05,0.0,0 STARLINK-5017,1 53915U 22119AF  24081.84757900  .00001978  00000-0  14227-3 0  9997,2 53915  53.2156 296.7371 0001353 107.1017 253.0124 15.08855981 83032,6917.832,95.437,540.633,538.761,0.0
53915.0,STARLINK-5017,PAYLOAD,2024-03-21 21:55:53,15.08857773,0.0001588,53.2167,296.4411,109.9708,250.1455,0.00021693,3.168e-05,0.0,0 STARLINK-5017,1 53915U 22119AF  24081.91381635  .00003168  00000-0  21693-3 0  9991,2 53915  53.2167 296.4411 0001588 109.9708 250.1455 15.08857773 83466,6917.826,95.436,540.79,538.593,0.0
53915.0,STARLINK-5017,PAYLOAD,2024-03-21 23:31:16,15.08863663,0.0002383,53.217,296.1409,126.7924,233.3287,0.00025594,3.79e-05,0.0,0 STARLINK-5017,1 53915U 22119AF  24081.98005130  .00003790  00000-0  25594-3 0  9996,2 53915  53.2170 296.1409 0002383 126.7924 233.3287 15.08863663 83051,6917.808,95.436,541.322,538.025,0.0
53915.0,STARLINK-5017,PAYLOAD,2024-03-22 20:11:18,15.08850698,0.0001628,53.2165,292.2739,120.1213,239.994,0.00020389,2.959e-05,0.0,0 STARLINK-5017,1 53915U 22119AF  24082.84118618  .00002959  00000-0  20389-3 0  9991,2 53915  53.2165 292.2739 0001628 120.1213 239.9940 15.08850698 83184,6917.848,95.437,540.839,538.586,0.0
53915.0,STARLINK-5017,PAYLOAD,2024-03-23 20:02:05,15.08853291,0.0001895,53.2178,287.8173,127.4048,232.7117,-0.00011161,-2.065e-05,0.0,0 STARLINK-5017,1 53915U 22119AF  24083.83478582 -.00002065  00000-0 -11161-3 0  9998,2 53915  53.2178 287.8173 0001895 127.4048 232.7117 15.08853291 83338,6917.84,95.437,541.016,538.394,0.0
53915.0,STARLINK-5017,PAYLOAD,2024-03-24 13:31:19,15.08846377,0.0002256,53.2164,284.5458,90.4821,269.643,0.0001289,1.764e-05,0.0,0 STARLINK-5017,1 53915U 22119AF  24084.56342213  .00001764  00000-0  12890-3 0  9993,2 53915  53.2164 284.5458 0002256  90.4821 269.6430 15.08846377 83865,6917.861,95.437,541.287,538.165,0.0
53915.0,STARLINK-5017,PAYLOAD,2024-03-24 19:52:52,15.08850259,0.0001728,53.2177,283.3583,98.9908,261.128,9.2383e-05,1.183e-05,0.0,0 STARLINK-5017,1 53915U 22119AF  24084.82838148  .00001183  00000-0  92383-4 0  9990,2 53915  53.2177 283.3583 0001728  98.9908 261.1280 15.08850259 83906,6917.849,95.437,540.909,538.519,0.0
53915.0,STARLINK-5017,PAYLOAD,2024-03-25 19:43:40,15.0882803,0.0001367,53.2167,278.8945,92.1131,268.0018,-4.7903e-05,-1.05e-05,0.0,0 STARLINK-5017,1 53915U 22119AF  24085.82199916 -.00001050  00000-0 -47903-4 0  9997,2 53915  53.2167 278.8945 0001367  92.1131 268.0018 15.08828030 83636,6917.917,95.438,540.728,538.836,0.0
